<?xml version="1.0" encoding="UTF-8"?>
<ndm xmlns:xsi="http://www.w3.org/2001/XMLSchema-instance" xsi:noNamespaceSchemaLocation="https://sanaregistry.org/r/ndmxml_unqualified/ndmxml-2.0.0-master-2.0.xsd">
<omm id="CCSDS_OMM_VERS" version="2.0">
<header><CREATION_DATE/><ORIGINATOR/></header><body><segment><metadata><OBJECT_NAME>ONEWEB-0328</OBJECT_NAME><OBJECT_ID>2021-083M</OBJECT_ID><CENTER_NAME>EARTH</CENTER_NAME><REF_FRAME>TEME</REF_FRAME><TIME_SYSTEM>UTC</TIME_SYSTEM><MEAN_ELEMENT_THEORY>SGP4</MEAN_ELEMENT_THEORY></metadata><data><meanElements><EPOCH>2024-01-22T19:09:24.243264</EPOCH><MEAN_MOTION>13.13472148</MEAN_MOTION><ECCENTRICITY>.0001467</ECCENTRICITY><INCLINATION>87.9006</INCLINATION><RA_OF_ASC_NODE>134.6813</RA_OF_ASC_NODE><ARG_OF_PERICENTER>102.7072</ARG_OF_PERICENTER><MEAN_ANOMALY>257.4221</MEAN_ANOMALY></meanElements><tleParameters><EPHEMERIS_TYPE>0</EPHEMERIS_TYPE><CLASSIFICATION_TYPE>U</CLASSIFICATION_TYPE><NORAD_CAT_ID>49197</NORAD_CAT_ID><ELEMENT_SET_NO>999</ELEMENT_SET_NO><REV_AT_EPOCH>11585</REV_AT_EPOCH><BSTAR>-.86095E-3</BSTAR><MEAN_MOTION_DOT>-.302E-5</MEAN_MOTION_DOT><MEAN_MOTION_DDOT>0</MEAN_MOTION_DDOT></tleParameters></data></segment></body></omm>
<omm id="CCSDS_OMM_VERS" version="2.0">
<header><CREATION_DATE/><ORIGINATOR/></header><body><segment><metadata><OBJECT_NAME>ONEWEB-0331</OBJECT_NAME><OBJECT_ID>2021-083N</OBJECT_ID><CENTER_NAME>EARTH</CENTER_NAME><REF_FRAME>TEME</REF_FRAME><TIME_SYSTEM>UTC</TIME_SYSTEM><MEAN_ELEMENT_THEORY>SGP4</MEAN_ELEMENT_THEORY></metadata><data><meanElements><EPOCH>2024-01-22T20:25:02.247744</EPOCH><MEAN_MOTION>13.18684639</MEAN_MOTION><ECCENTRICITY>.0001354</ECCENTRICITY><INCLINATION>87.9243</INCLINATION><RA_OF_ASC_NODE>149.8358</RA_OF_ASC_NODE><ARG_OF_PERICENTER>101.1815</ARG_OF_PERICENTER><MEAN_ANOMALY>258.9470</MEAN_ANOMALY></meanElements><tleParameters><EPHEMERIS_TYPE>0</EPHEMERIS_TYPE><CLASSIFICATION_TYPE>U</CLASSIFICATION_TYPE><NORAD_CAT_ID>49198</NORAD_CAT_ID><ELEMENT_SET_NO>999</ELEMENT_SET_NO><REV_AT_EPOCH>11579</REV_AT_EPOCH><BSTAR>-.80809E-4</BSTAR><MEAN_MOTION_DOT>-.19E-6</MEAN_MOTION_DOT><MEAN_MOTION_DDOT>0</MEAN_MOTION_DDOT></tleParameters></data></segment></body></omm>
<omm id="CCSDS_OMM_VERS" version="2.0">
<header><CREATION_DATE/><ORIGINATOR/></header><body><segment><metadata><OBJECT_NAME>ONEWEB-0333</OBJECT_NAME><OBJECT_ID>2021-083P</OBJECT_ID><CENTER_NAME>EARTH</CENTER_NAME><REF_FRAME>TEME</REF_FRAME><TIME_SYSTEM>UTC</TIME_SYSTEM><MEAN_ELEMENT_THEORY>SGP4</MEAN_ELEMENT_THEORY></metadata><data><meanElements><EPOCH>2024-01-22T20:52:14.156256</EPOCH><MEAN_MOTION>13.13469345</MEAN_MOTION><ECCENTRICITY>.00018</ECCENTRICITY><INCLINATION>87.9016</INCLINATION><RA_OF_ASC_NODE>134.6773</RA_OF_ASC_NODE><ARG_OF_PERICENTER>107.3007</ARG_OF_PERICENTER><MEAN_ANOMALY>252.8320</MEAN_ANOMALY></meanElements><tleParameters><EPHEMERIS_TYPE>0</EPHEMERIS_TYPE><CLASSIFICATION_TYPE>U</CLASSIFICATION_TYPE><NORAD_CAT_ID>49199</NORAD_CAT_ID><ELEMENT_SET_NO>999</ELEMENT_SET_NO><REV_AT_EPOCH>11587</REV_AT_EPOCH><BSTAR>-.1378E-2</BSTAR><MEAN_MOTION_DOT>-.49E-5</MEAN_MOTION_DOT><MEAN_MOTION_DDOT>0</MEAN_MOTION_DDOT></tleParameters></data></segment></body></omm>
<omm id="CCSDS_OMM_VERS" version="2.0">
<header><CREATION_DATE/><ORIGINATOR/></header><body><segment><metadata><OBJECT_NAME>ONEWEB-0334</OBJECT_NAME><OBJECT_ID>2021-083Q</OBJECT_ID><CENTER_NAME>EARTH</CENTER_NAME><REF_FRAME>TEME</REF_FRAME><TIME_SYSTEM>UTC</TIME_SYSTEM><MEAN_ELEMENT_THEORY>SGP4</MEAN_ELEMENT_THEORY></metadata><data><meanElements><EPOCH>2024-01-22T16:20:08.572992</EPOCH><MEAN_MOTION>13.20771668</MEAN_MOTION><ECCENTRICITY>.0002601</ECCENTRICITY><INCLINATION>87.9168</INCLINATION><RA_OF_ASC_NODE>88.9601</RA_OF_ASC_NODE><ARG_OF_PERICENTER>112.5128</ARG_OF_PERICENTER><MEAN_ANOMALY>247.6281</MEAN_ANOMALY></meanElements><tleParameters><EPHEMERIS_TYPE>0</EPHEMERIS_TYPE><CLASSIFICATION_TYPE>U</CLASSIFICATION_TYPE><NORAD_CAT_ID>49200</NORAD_CAT_ID><ELEMENT_SET_NO>999</ELEMENT_SET_NO><REV_AT_EPOCH>12109</REV_AT_EPOCH><BSTAR>.74734E-4</BSTAR><MEAN_MOTION_DOT>.43E-6</MEAN_MOTION_DOT><MEAN_MOTION_DDOT>0</MEAN_MOTION_DDOT></tleParameters></data></segment></body></omm>
<omm id="CCSDS_OMM_VERS" version="2.0">
<header><CREATION_DATE/><ORIGINATOR/></header><body><segment><metadata><OBJECT_NAME>ONEWEB-0335</OBJECT_NAME><OBJECT_ID>2021-083R</OBJECT_ID><CENTER_NAME>EARTH</CENTER_NAME><REF_FRAME>TEME</REF_FRAME><TIME_SYSTEM>UTC</TIME_SYSTEM><MEAN_ELEMENT_THEORY>SGP4</MEAN_ELEMENT_THEORY></metadata><data><meanElements><EPOCH>2024-01-22T20:45:23.395968</EPOCH><MEAN_MOTION>13.13469355</MEAN_MOTION><ECCENTRICITY>.0001631</ECCENTRICITY><INCLINATION>87.9018</INCLINATION><RA_OF_ASC_NODE>134.6663</RA_OF_ASC_NODE><ARG_OF_PERICENTER>105.6747</ARG_OF_PERICENTER><MEAN_ANOMALY>254.4562</MEAN_ANOMALY></meanElements><tleParameters><EPHEMERIS_TYPE>0</EPHEMERIS_TYPE><CLASSIFICATION_TYPE>U</CLASSIFICATION_TYPE><NORAD_CAT_ID>49201</NORAD_CAT_ID><ELEMENT_SET_NO>999</ELEMENT_SET_NO><REV_AT_EPOCH>11588</REV_AT_EPOCH><BSTAR>-.95456E-3</BSTAR><MEAN_MOTION_DOT>-.336E-5</MEAN_MOTION_DOT><MEAN_MOTION_DDOT>0</MEAN_MOTION_DDOT></tleParameters></data></segment></body></omm>
<omm id="CCSDS_OMM_VERS" version="2.0">
<header><CREATION_DATE/><ORIGINATOR/></header><body><segment><metadata><OBJECT_NAME>ONEWEB-0336</OBJECT_NAME><OBJECT_ID>2021-083S</OBJECT_ID><CENTER_NAME>EARTH</CENTER_NAME><REF_FRAME>TEME</REF_FRAME><TIME_SYSTEM>UTC</TIME_SYSTEM><MEAN_ELEMENT_THEORY>SGP4</MEAN_ELEMENT_THEORY></metadata><data><meanElements><EPOCH>2024-01-22T20:01:58.500768</EPOCH><MEAN_MOTION>13.13470068</MEAN_MOTION><ECCENTRICITY>.0001719</ECCENTRICITY><INCLINATION>87.9018</INCLINATION><RA_OF_ASC_NODE>134.6712</RA_OF_ASC_NODE><ARG_OF_PERICENTER>111.1650</ARG_OF_PERICENTER><MEAN_ANOMALY>248.9663</MEAN_ANOMALY></meanElements><tleParameters><EPHEMERIS_TYPE>0</EPHEMERIS_TYPE><CLASSIFICATION_TYPE>U</CLASSIFICATION_TYPE><NORAD_CAT_ID>49202</NORAD_CAT_ID><ELEMENT_SET_NO>999</ELEMENT_SET_NO><REV_AT_EPOCH>11587</REV_AT_EPOCH><BSTAR>.76307E-3</BSTAR><MEAN_MOTION_DOT>.291E-5</MEAN_MOTION_DOT><MEAN_MOTION_DDOT>0</MEAN_MOTION_DDOT></tleParameters></data></segment></body></omm>
<omm id="CCSDS_OMM_VERS" version="2.0">
<header><CREATION_DATE/><ORIGINATOR/></header><body><segment><metadata><OBJECT_NAME>ONEWEB-0337</OBJECT_NAME><OBJECT_ID>2021-083T</OBJECT_ID><CENTER_NAME>EARTH</CENTER_NAME><REF_FRAME>TEME</REF_FRAME><TIME_SYSTEM>UTC</TIME_SYSTEM><MEAN_ELEMENT_THEORY>SGP4</MEAN_ELEMENT_THEORY></metadata><data><meanElements><EPOCH>2024-01-22T20:15:29.115072</EPOCH><MEAN_MOTION>13.13469910</MEAN_MOTION><ECCENTRICITY>.0001544</ECCENTRICITY><INCLINATION>87.9018</INCLINATION><RA_OF_ASC_NODE>134.6672</RA_OF_ASC_NODE><ARG_OF_PERICENTER>102.0335</ARG_OF_PERICENTER><MEAN_ANOMALY>258.0967</MEAN_ANOMALY></meanElements><tleParameters><EPHEMERIS_TYPE>0</EPHEMERIS_TYPE><CLASSIFICATION_TYPE>U</CLASSIFICATION_TYPE><NORAD_CAT_ID>49203</NORAD_CAT_ID><ELEMENT_SET_NO>999</ELEMENT_SET_NO><REV_AT_EPOCH>11587</REV_AT_EPOCH><BSTAR>.6009E-3</BSTAR><MEAN_MOTION_DOT>.232E-5</MEAN_MOTION_DOT><MEAN_MOTION_DDOT>0</MEAN_MOTION_DDOT></tleParameters></data></segment></body></omm>
<omm id="CCSDS_OMM_VERS" version="2.0">
<header><CREATION_DATE/><ORIGINATOR/></header><body><segment><metadata><OBJECT_NAME>ONEWEB-0338</OBJECT_NAME><OBJECT_ID>2021-083U</OBJECT_ID><CENTER_NAME>EARTH</CENTER_NAME><REF_FRAME>TEME</REF_FRAME><TIME_SYSTEM>UTC</TIME_SYSTEM><MEAN_ELEMENT_THEORY>SGP4</MEAN_ELEMENT_THEORY></metadata><data><meanElements><EPOCH>2024-01-22T16:29:14.055072</EPOCH><MEAN_MOTION>13.20770039</MEAN_MOTION><ECCENTRICITY>.0002324</ECCENTRICITY><INCLINATION>87.9174</INCLINATION><RA_OF_ASC_NODE>88.9337</RA_OF_ASC_NODE><ARG_OF_PERICENTER>99.9393</ARG_OF_PERICENTER><MEAN_ANOMALY>260.2003</MEAN_ANOMALY></meanElements><tleParameters><EPHEMERIS_TYPE>0</EPHEMERIS_TYPE><CLASSIFICATION_TYPE>U</CLASSIFICATION_TYPE><NORAD_CAT_ID>49204</NORAD_CAT_ID><ELEMENT_SET_NO>999</ELEMENT_SET_NO><REV_AT_EPOCH>12111</REV_AT_EPOCH><BSTAR>.13583E-3</BSTAR><MEAN_MOTION_DOT>.68E-6</MEAN_MOTION_DOT><MEAN_MOTION_DDOT>0</MEAN_MOTION_DDOT></tleParameters></data></segment></body></omm>
<omm id="CCSDS_OMM_VERS" version="2.0">
<header><CREATION_DATE/><ORIGINATOR/></header><body><segment><metadata><OBJECT_NAME>ONEWEB-0339</OBJECT_NAME><OBJECT_ID>2021-083V</OBJECT_ID><CENTER_NAME>EARTH</CENTER_NAME><REF_FRAME>TEME</REF_FRAME><TIME_SYSTEM>UTC</TIME_SYSTEM><MEAN_ELEMENT_THEORY>SGP4</MEAN_ELEMENT_THEORY></metadata><data><meanElements><EPOCH>2024-01-23T07:29:51.163872</EPOCH><MEAN_MOTION>13.13470465</MEAN_MOTION><ECCENTRICITY>.0001597</ECCENTRICITY><INCLINATION>87.9016</INCLINATION><RA_OF_ASC_NODE>134.5723</RA_OF_ASC_NODE><ARG_OF_PERICENTER>99.4724</ARG_OF_PERICENTER><MEAN_ANOMALY>260.6585</MEAN_ANOMALY></meanElements><tleParameters><EPHEMERIS_TYPE>0</EPHEMERIS_TYPE><CLASSIFICATION_TYPE>U</CLASSIFICATION_TYPE><NORAD_CAT_ID>49205</NORAD_CAT_ID><ELEMENT_SET_NO>999</ELEMENT_SET_NO><REV_AT_EPOCH>11721</REV_AT_EPOCH><BSTAR>.37092E-3</BSTAR><MEAN_MOTION_DOT>.148E-5</MEAN_MOTION_DOT><MEAN_MOTION_DDOT>0</MEAN_MOTION_DDOT></tleParameters></data></segment></body></omm>

</ndm>
